KUIPER-00104            
1 65142U 25171L   25307.91670139 -.00778656  00000+0 -39672-1 0  9995
2 65142  51.8848 358.6338 0004702  82.6220 166.1998 15.18940473  4548
KUIPER-00105            
1 65143U 25171M   25307.91670139 -.00024560  00000+0 -22202-2 0  9996
2 65143  51.9197   2.5071 0011424  48.5801 290.7245 14.94717587  5845
KUIPER-00106            
1 65144U 25171N   25307.44489164  .00008777  00000+0  79870-3 0  9995
2 65144  51.8946   8.1895 0009461  40.0397 320.1268 14.95836680 14039
KUIPER-00107            
1 65145U 25171P   25307.87435642  .00041267  00000+0  10802-2 0  9995
2 65145  51.8756 357.3046 0006087  67.5089 292.6542 15.38296690 14227
KUIPER-00108            
1 65146U 25171Q   25307.91670139 -.01019646  00000+0 -62649-1 0  9997
2 65146  51.8996 359.5460 0008014  57.4238  54.2859 15.12672057  5808
KUIPER-00109            
1 65147U 25171R   25307.91670139 -.00676200  00000+0 -28426-1 0  9997
2 65147  51.8821 357.7231 0013043  59.9990 257.4174 15.25363022  5824
KUIPER-00110            
1 65148U 25171S   25307.91670139 -.00007925  00000+0 -83074-3 0  9992
2 65148  51.8996   4.5322 0010751  54.6736 344.1726 14.87914244  3593
KUIPER-00111            
1 65149U 25171T   25307.44796431 -.00009953  00000+0 -12772-2 0  9994
2 65149  51.9001  11.3198 0009726  65.9957 294.2023 14.79928114 13980
